IRIDIUM 36              
1 24967U 97056C   24260.62643402  .00001132  00000+0  37543-3 0  9997
2 24967  86.3917 287.8967 0002276  97.2453 262.9003 14.37034563412924
IRIDIUM 39              
1 25042U 97069D   24260.70235157  .00002028  00000+0  53587-3 0  9990
2 25042  86.3950 328.3926 0019840 135.3303 224.9503 14.48344738409362
IRIDIUM 38              
1 25043U 97069E   24260.67444539  .00001613  00000+0  53221-3 0  9997
2 25043  86.4017 348.2321 0000283  74.8667 285.2562 14.37526970406651
IRIDIUM 42              
1 25077U 97077A   24260.76656988  .00001534  00000+0  52375-3 0  9997
2 25077  86.4025 354.0207 0001498  84.4193 275.7174 14.35805047401959
IRIDIUM 44              
1 25078U 97077B   24260.69109750  .00001444  00000+0  45573-3 0  9992
2 25078  86.4000 336.7204 0002222 143.1195 217.0157 14.39648888404346
IRIDIUM 45              
1 25104U 97082A   24260.82656817  .00027658  00000+0  14010-2 0  9990
2 25104  86.3727 179.1104 0144745 265.3882  93.0810 15.08077611410641
IRIDIUM 24              
1 25105U 97082B   24260.87388980  .00001563  00000+0  47570-3 0  9994
2 25105  86.3976 196.0732 0009008 259.7217 100.2968 14.41464534403832
IRIDIUM 51              
1 25262U 98018A   24260.86610688  .00032650  00000+0  13242-2 0  9999
2 25262  86.4003 188.6066 0130346 201.8079 157.7586 15.16908923405281
